{"type":"FeatureCollection","features":[{"type":"Feature","properties":{"objects":5,"places":1,"largest_place":"Gascoyne, Western Australia","largest_place_objects":5},"geometry":{"type":"Polygon","coordinates":[[[113.8183,-24.1526],[114.6056,-24.6999],[114.4687,-25.5805],[113.5313,-25.9123],[112.7408,-25.3596],[112.8908,-24.4806],[113.8183,-24.1526]]]}},{"type":"Feature","properties":{"objects":10,"places":2,"largest_place":"Roebourne, Western Australia","largest_place_objects":5},"geometry":{"type":"Polygon","coordinates":[[[116.9172,-20.4743],[117.6941,-21.0072],[117.5849,-21.8943],[116.6864,-22.2476],[115.906,-21.7102],[116.0276,-20.8242],[116.9172,-20.4743]]]}},{"type":"Feature","properties":{"objects":1,"places":1,"largest_place":"Port Hedland, Western Australia","largest_place_objects":1},"geometry":{"type":"Polygon","coordinates":[[[117.9075,-19.2282],[118.6806,-19.7568],[118.58,-20.6467],[117.6941,-21.0072],[116.9172,-20.4743],[117.0301,-19.5854],[117.9075,-19.2282]]]}},{"type":"Feature","properties":{"objects":1,"places":1,"largest_place":"Central Coast, Western Australia","largest_place_objects":1},"geometry":{"type":"Polygon","coordinates":[[[114.4687,-25.5805],[115.2691,-26.1236],[115.1357,-27.0043],[114.1883,-27.3403],[113.3844,-26.7914],[113.5313,-25.9123],[114.4687,-25.5805]]]}},{"type":"Feature","properties":{"objects":1,"places":1,"largest_place":"Gascoyne River, Western Australia","largest_place_objects":1},"geometry":{"type":"Polygon","coordinates":[[[115.5298,-24.3609],[116.3267,-24.8986],[116.203,-25.7807],[115.2691,-26.1236],[114.4687,-25.5805],[114.6056,-24.6999],[115.5298,-24.3609]]]}},{"type":"Feature","properties":{"objects":6,"places":2,"largest_place":"North-west Western Australia, Western Australia","largest_place_objects":3},"geometry":{"type":"Polygon","coordinates":[[[118.58,-20.6467],[119.3654,-21.17],[119.2689,-22.0581],[118.3743,-22.4221],[117.5849,-21.8943],[117.6941,-21.0072],[118.58,-20.6467]]]}},{"type":"Feature","properties":{"objects":3,"places":1,"largest_place":"de Grey River, Western Australia","largest_place_objects":3},"geometry":{"type":"Polygon","coordinates":[[[119.5543,-19.3892],[120.3357,-19.9082],[120.2474,-20.799],[119.3654,-21.17],[118.58,-20.6467],[118.6806,-19.7568],[119.5543,-19.3892]]]}},{"type":"Feature","properties":{"objects":31,"places":1,"largest_place":"Cape Leveque, Western Australia","largest_place_objects":31},"geometry":{"type":"Polygon","coordinates":[[[122.3572,-15.5529],[123.1259,-16.0609],[123.0608,-16.9617],[122.2154,-17.3541],[121.4424,-16.8427],[121.5191,-15.9424],[122.3572,-15.5529]]]}},{"type":"Feature","properties":{"objects":15,"places":1,"largest_place":"Murchison, Western Australia","largest_place_objects":15},"geometry":{"type":"Polygon","coordinates":[[[116.203,-25.7807],[117.0132,-26.3141],[116.8934,-27.1963],[115.9497,-27.5436],[115.1357,-27.0043],[115.2691,-26.1236],[116.203,-25.7807]]]}},{"type":"Feature","properties":{"objects":1,"places":1,"largest_place":"Nullagine, Western Australia","largest_place_objects":1},"geometry":{"type":"Polygon","coordinates":[[[120.2474,-20.799],[121.0412,-21.3126],[120.9573,-22.2016],[120.0669,-22.5762],[119.2689,-22.0581],[119.3654,-21.17],[120.2474,-20.799]]]}},{"type":"Feature","properties":{"objects":13,"places":1,"largest_place":"Bidyadanga (La Grange), Western Australia","largest_place_objects":13},"geometry":{"type":"Polygon","coordinates":[[[122.1429,-18.2512],[122.9278,-18.7566],[122.8598,-19.6511],[121.9946,-20.0395],[121.2052,-19.5301],[121.2855,-18.6363],[122.1429,-18.2512]]]}},{"type":"Feature","properties":{"objects":94,"places":4,"largest_place":"Broome, Western Australia","largest_place_objects":75},"geometry":{"type":"Polygon","coordinates":[[[123.0608,-16.9617],[123.8413,-17.4635],[123.7808,-18.3612],[122.9278,-18.7566],[122.1429,-18.2512],[122.2154,-17.3541],[123.0608,-16.9617]]]}},{"type":"Feature","properties":{"objects":64,"places":3,"largest_place":"Mowanjum, West Kimberley, Western Australia","largest_place_objects":58},"geometry":{"type":"Polygon","coordinates":[[[123.9597,-15.6613],[124.7355,-16.1597],[124.6822,-17.061],[123.8413,-17.4635],[123.0608,-16.9617],[123.1259,-16.0609],[123.9597,-15.6613]]]}},{"type":"Feature","properties":{"objects":14,"places":4,"largest_place":"Port George IV, Western Australia","largest_place_objects":9},"geometry":{"type":"Polygon","coordinates":[[[124.8399,-14.3496],[125.6111,-14.8449],[125.5647,-15.7501],[124.7355,-16.1597],[123.9597,-15.6613],[124.0176,-14.7565],[124.8399,-14.3496]]]}},{"type":"Feature","properties":{"objects":1,"places":1,"largest_place":"Meekatharra, Western Australia","largest_place_objects":1},"geometry":{"type":"Polygon","coordinates":[[[117.9432,-25.96],[118.763,-26.4837],[118.6569,-27.3672],[117.7174,-27.7258],[116.8934,-27.1963],[117.0132,-26.3141],[117.9432,-25.96]]]}},{"type":"Feature","properties":{"objects":3,"places":1,"largest_place":"Jigalong, Western Australia","largest_place_objects":3},"geometry":{"type":"Polygon","coordinates":[[[120.9573,-22.2016],[121.7637,-22.71],[121.6844,-23.5976],[120.7855,-23.9762],[119.9745,-23.463],[120.0669,-22.5762],[120.9573,-22.2016]]]}},{"type":"Feature","properties":{"objects":1,"places":1,"largest_place":"Northern Western Australia, Western Australia","largest_place_objects":1},"geometry":{"type":"Polygon","coordinates":[[[123.7808,-18.3612],[124.5732,-18.8569],[124.5174,-19.7519],[123.657,-20.1507],[122.8598,-19.6511],[122.9278,-18.7566],[123.7808,-18.3612]]]}},{"type":"Feature","properties":{"objects":6,"places":3,"largest_place":"West Kimberley, Western Australia","largest_place_objects":4},"geometry":{"type":"Polygon","coordinates":[[[124.6822,-17.061],[125.4698,-17.5531],[125.4213,-18.4512],[124.5732,-18.8569],[123.7808,-18.3612],[123.8413,-17.4635],[124.6822,-17.061]]]}},{"type":"Feature","properties":{"objects":5,"places":1,"largest_place":"Kalumburu, Western Australia","largest_place_objects":5},"geometry":{"type":"Polygon","coordinates":[[[127.2748,-13.0942],[128.0477,-13.577],[128.0193,-14.4868],[127.2066,-14.9136],[126.4287,-14.428],[126.4685,-13.5184],[127.2748,-13.0942]]]}},{"type":"Feature","properties":{"objects":84,"places":6,"largest_place":"Perth, Western Australia","largest_place_objects":50},"geometry":{"type":"Polygon","coordinates":[[[115.4182,-31.0703],[116.2647,-31.6093],[116.1327,-32.4938],[115.1391,-32.8376],[114.2885,-32.2914],[114.4355,-31.4088],[115.4182,-31.0703]]]}},{"type":"Feature","properties":{"objects":6,"places":1,"largest_place":"Wiluna, Western Australia","largest_place_objects":6},"geometry":{"type":"Polygon","coordinates":[[[119.6887,-26.1185],[120.5177,-26.6323],[120.4256,-27.517],[119.4905,-27.8868],[118.6569,-27.3672],[118.763,-26.4837],[119.6887,-26.1185]]]}},{"type":"Feature","properties":{"objects":10,"places":2,"largest_place":"Parnngurr, Western Australia","largest_place_objects":6},"geometry":{"type":"Polygon","coordinates":[[[122.6495,-22.3247],[123.4642,-22.8232],[123.398,-23.7117],[122.5039,-24.1009],[121.6844,-23.5976],[121.7637,-22.71],[122.6495,-22.3247]]]}},{"type":"Feature","properties":{"objects":1,"places":1,"largest_place":"Punmu, Western Australia","largest_place_objects":1},"geometry":{"type":"Polygon","coordinates":[[[123.5937,-21.0429],[124.4034,-21.537],[124.3451,-22.4274],[123.4642,-22.8232],[122.6495,-22.3247],[122.7207,-21.4349],[123.5937,-21.0429]]]}},{"type":"Feature","properties":{"objects":1,"places":1,"largest_place":"Wangkatjungka, Western Australia","largest_place_objects":1},"geometry":{"type":"Polygon","coordinates":[[[125.4213,-18.4512],[126.221,-18.9372],[126.1776,-19.8326],[125.3222,-20.2418],[124.5174,-19.7519],[124.5732,-18.8569],[125.4213,-18.4512]]]}},{"type":"Feature","properties":{"objects":23,"places":3,"largest_place":"Fitzroy Crossing, Western Australia","largest_place_objects":14},"geometry":{"type":"Polygon","coordinates":[[[126.3059,-17.1405],[127.1005,-17.6228],[127.0641,-18.5213],[126.221,-18.9372],[125.4213,-18.4512],[125.4698,-17.5531],[126.3059,-17.1405]]]}},{"type":"Feature","properties":{"objects":45,"places":5,"largest_place":"Forrest River, Western Australia","largest_place_objects":23},"geometry":{"type":"Polygon","coordinates":[[[128.0193,-14.4868],[128.8035,-14.9628],[128.7803,-15.8685],[127.9612,-16.2982],[127.1717,-15.8192],[127.2066,-14.9136],[128.0193,-14.4868]]]}},{"type":"Feature","properties":{"objects":62,"places":2,"largest_place":"Port Keats (Wadeye), Northern Territory","largest_place_objects":61},"geometry":{"type":"Polygon","coordinates":[[[128.849,-13.1429],[129.6281,-13.6161],[129.6111,-14.5261],[128.8035,-14.9628],[128.0193,-14.4868],[128.0477,-13.577],[128.849,-13.1429]]]}},{"type":"Feature","properties":{"objects":1,"places":1,"largest_place":"Anson Bay, Northern Territory","largest_place_objects":1},"geometry":{"type":"Polygon","coordinates":[[[129.6615,-11.787],[130.4354,-12.2576],[130.4243,-13.1722],[129.6281,-13.6161],[128.849,-13.1429],[128.8713,-12.2285],[129.6615,-11.787]]]}},{"type":"Feature","properties":{"objects":468,"places":6,"largest_place":"Bathurst Island, Tiwi Islands, Northern Territory","largest_place_objects":239},"geometry":{"type":"Polygon","coordinates":[[[130.4572,-10.4184],[131.2259,-10.8868],[131.2204,-11.8064],[130.4354,-12.2576],[129.6615,-11.787],[129.6779,-10.8674],[130.4572,-10.4184]]]}},{"type":"Feature","properties":{"objects":1,"places":1,"largest_place":"Busselton, Western Australia","largest_place_objects":1},"geometry":{"type":"Polygon","coordinates":[[[116.1327,-32.4938],[116.9943,-33.0299],[116.8666,-33.9173],[115.8618,-34.2668],[114.996,-33.7231],[115.1391,-32.8376],[116.1327,-32.4938]]]}},{"type":"Feature","properties":{"objects":3,"places":2,"largest_place":"Northam, Western Australia","largest_place_objects":2},"geometry":{"type":"Polygon","coordinates":[[[117.2433,-31.2589],[118.1004,-31.7878],[117.9835,-32.6741],[116.9943,-33.0299],[116.1327,-32.4938],[116.2647,-31.6093],[117.2433,-31.2589]]]}},{"type":"Feature","properties":{"objects":21,"places":2,"largest_place":"Western Arnhem Land, Northern Territory","largest_place_objects":20},"geometry":{"type":"Polygon","coordinates":[[[121.4388,-26.2561],[122.2768,-26.7599],[122.1986,-27.6455],[121.2685,-28.0265],[120.4256,-27.517],[120.5177,-26.6323],[121.4388,-26.2561]]]}},{"type":"Feature","properties":{"objects":1,"places":1,"largest_place":"Yiyili, Western Australia","largest_place_objects":1},"geometry":{"type":"Polygon","coordinates":[[[127.0641,-18.5213],[127.8708,-18.9974],[127.8397,-19.8932],[126.9896,-20.3126],[126.1776,-19.8326],[126.221,-18.9372],[127.0641,-18.5213]]]}},{"type":"Feature","properties":{"objects":3,"places":2,"largest_place":"Rosewood Station, Northern Territory","largest_place_objects":2},"geometry":{"type":"Polygon","coordinates":[[[128.7803,-15.8685],[129.5762,-16.3378],[129.5584,-17.2399],[128.7328,-17.6726],[127.9315,-17.2001],[127.9612,-16.2982],[128.7803,-15.8685]]]}},{"type":"Feature","properties":{"objects":6,"places":2,"largest_place":"Victoria River, Northern Territory","largest_place_objects":4},"geometry":{"type":"Polygon","coordinates":[[[129.6111,-14.5261],[130.4015,-14.9923],[130.3899,-15.8981],[129.5762,-16.3378],[128.7803,-15.8685],[128.8035,-14.9628],[129.6111,-14.5261]]]}},{"type":"Feature","properties":{"objects":379,"places":3,"largest_place":"St Francis Xavier School, Daly River, Northern Territory","largest_place_objects":237},"geometry":{"type":"Polygon","coordinates":[[[130.4243,-13.1722],[131.2093,-13.6356],[131.2036,-14.5457],[130.4015,-14.9923],[129.6111,-14.5261],[129.6281,-13.6161],[130.4243,-13.1722]]]}},{"type":"Feature","properties":{"objects":679,"places":5,"largest_place":"Darwin, Northern Territory","largest_place_objects":635},"geometry":{"type":"Polygon","coordinates":[[[131.2204,-11.8064],[132.0,-12.2673],[132.0,-13.1819],[131.2093,-13.6356],[130.4243,-13.1722],[130.4354,-12.2576],[131.2204,-11.8064]]]}},{"type":"Feature","properties":{"objects":120,"places":3,"largest_place":"Minjilang, Croker Island, Northern Territory","largest_place_objects":115},"geometry":{"type":"Polygon","coordinates":[[[132.0,-10.428],[132.7741,-10.8868],[132.7796,-11.8064],[132.0,-12.2673],[131.2204,-11.8064],[131.2259,-10.8868],[132.0,-10.428]]]}},{"type":"Feature","properties":{"objects":3,"places":1,"largest_place":"Mount Dandenong, Melbourne, Victoria","largest_place_objects":3},"geometry":{"type":"Polygon","coordinates":[[[120.1401,-30.1717],[121.0025,-30.6835],[120.9109,-31.5704],[119.9419,-31.9443],[119.0744,-31.4257],[119.181,-30.5401],[120.1401,-30.1717]]]}},{"type":"Feature","properties":{"objects":1,"places":1,"largest_place":"Leonora, Western Australia","largest_place_objects":1},"geometry":{"type":"Polygon","coordinates":[[[122.1986,-27.6455],[123.0507,-28.1449],[122.9778,-29.0312],[122.0385,-29.4172],[121.1813,-28.9118],[121.2685,-28.0265],[122.1986,-27.6455]]]}},{"type":"Feature","properties":{"objects":8,"places":2,"largest_place":"Mulan, Western Australia","largest_place_objects":5},"geometry":{"type":"Polygon","coordinates":[[[127.8397,-19.8932],[128.6588,-20.3632],[128.6334,-21.2567],[127.7762,-21.6799],[126.9516,-21.2058],[126.9896,-20.3126],[127.8397,-19.8932]]]}},{"type":"Feature","properties":{"objects":13,"places":2,"largest_place":"Nicholson Homestead, Western Australia","largest_place_objects":11},"geometry":{"type":"Polygon","coordinates":[[[129.5584,-17.2399],[130.3661,-17.7025],[130.354,-18.6014],[129.5219,-19.0376],[128.7085,-18.5714],[128.7328,-17.6726],[129.5584,-17.2399]]]}},{"type":"Feature","properties":{"objects":3,"places":2,"largest_place":"Wattie Creek, Northern Territory","largest_place_objects":2},"geometry":{"type":"Polygon","coordinates":[[[130.3899,-15.8981],[131.192,-16.3575],[131.186,-17.2598],[130.3661,-17.7025],[129.5584,-17.2399],[129.5762,-16.3378],[130.3899,-15.8981]]]}},{"type":"Feature","properties":{"objects":12,"places":2,"largest_place":"Katherine, Northern Territory","largest_place_objects":10},"geometry":{"type":"Polygon","coordinates":[[[132.0,-13.1819],[132.7907,-13.6356],[132.7964,-14.5457],[132.0,-15.0021],[131.2036,-14.5457],[131.2093,-13.6356],[132.0,-13.1819]]]}},{"type":"Feature","properties":{"objects":318,"places":7,"largest_place":"Gunbalanya (Oenpelli), Western Arnhem Land, Northern Territory","largest_place_objects":309},"geometry":{"type":"Polygon","coordinates":[[[132.7796,-11.8064],[133.5646,-12.2576],[133.5757,-13.1722],[132.7907,-13.6356],[132.0,-13.1819],[132.0,-12.2673],[132.7796,-11.8064]]]}},{"type":"Feature","properties":{"objects":15,"places":3,"largest_place":"Goulburn Islands, Northern Territory","largest_place_objects":13},"geometry":{"type":"Polygon","coordinates":[[[133.5428,-10.4184],[134.3221,-10.8674],[134.3385,-11.787],[133.5646,-12.2576],[132.7796,-11.8064],[132.7741,-10.8868],[133.5428,-10.4184]]]}},{"type":"Feature","properties":{"objects":5,"places":1,"largest_place":"Albany, Western Australia","largest_place_objects":5},"geometry":{"type":"Polygon","coordinates":[[[118.7438,-34.0891],[119.6318,-34.6122],[119.5249,-35.5049],[118.5138,-35.8729],[117.6207,-35.3418],[117.7437,-34.4508],[118.7438,-34.0891]]]}},{"type":"Feature","properties":{"objects":3,"places":2,"largest_place":"Kalgoorlie, Western Australia","largest_place_objects":2},"geometry":{"type":"Polygon","coordinates":[[[121.9565,-30.3036],[122.8285,-30.805],[122.752,-31.6931],[121.7884,-32.0787],[120.9109,-31.5704],[121.0025,-30.6835],[121.9565,-30.3036]]]}},{"type":"Feature","properties":{"objects":8,"places":3,"largest_place":"Warburton, Western Australia","largest_place_objects":4},"geometry":{"type":"Polygon","coordinates":[[[125.9028,-25.1765],[126.7522,-25.6546],[126.7104,-26.5423],[125.8054,-26.9514],[124.9503,-26.468],[125.0059,-25.5809],[125.9028,-25.1765]]]}},{"type":"Feature","properties":{"objects":31,"places":2,"largest_place":"Wanarn Community, Western Australia","largest_place_objects":29},"geometry":{"type":"Polygon","coordinates":[[[126.8338,-23.8777],[127.6773,-24.3508],[127.6433,-25.2394],[126.7522,-25.6546],[125.9028,-25.1765],[125.9504,-24.2883],[126.8338,-23.8777]]]}},{"type":"Feature","properties":{"objects":2,"places":1,"largest_place":"Supplejack Downs, Northern Territory","largest_place_objects":2},"geometry":{"type":"Polygon","coordinates":[[[130.354,-18.6014],[131.1739,-19.0577],[131.1677,-19.9538],[130.3291,-20.3936],[129.5033,-19.9336],[129.5219,-19.0376],[130.354,-18.6014]]]}},{"type":"Feature","properties":{"objects":9,"places":2,"largest_place":"Lajamanu (Hooker Creek), Northern Territory","largest_place_objects":6},"geometry":{"type":"Polygon","coordinates":[[[131.186,-17.2598],[132.0,-17.7125],[132.0,-18.6115],[131.1739,-19.0577],[130.354,-18.6014],[130.3661,-17.7025],[131.186,-17.2598]]]}},{"type":"Feature","properties":{"objects":3,"places":1,"largest_place":"Galeri, Northern Territory","largest_place_objects":3},"geometry":{"type":"Polygon","coordinates":[[[132.0,-15.908],[132.808,-16.3575],[132.814,-17.2598],[132.0,-17.7125],[131.186,-17.2598],[131.192,-16.3575],[132.0,-15.908]]]}},{"type":"Feature","properties":{"objects":3,"places":1,"largest_place":"Beswick Creek, Northern Territory","largest_place_objects":3},"geometry":{"type":"Polygon","coordinates":[[[132.7964,-14.5457],[133.5985,-14.9923],[133.6101,-15.8981],[132.808,-16.3575],[132.0,-15.908],[132.0,-15.0021],[132.7964,-14.5457]]]}},{"type":"Feature","properties":{"objects":46,"places":6,"largest_place":"Beswick, Northern Territory","largest_place_objects":30},"geometry":{"type":"Polygon","coordinates":[[[133.5757,-13.1722],[134.3719,-13.6161],[134.3889,-14.5261],[133.5985,-14.9923],[132.7964,-14.5457],[132.7907,-13.6356],[133.5757,-13.1722]]]}},{"type":"Feature","properties":{"objects":430,"places":19,"largest_place":"Milingimbi, Arnhem Land, Northern Territory","largest_place_objects":182},"geometry":{"type":"Polygon","coordinates":[[[134.3385,-11.787],[135.1287,-12.2285],[135.151,-13.1429],[134.3719,-13.6161],[133.5757,-13.1722],[133.5646,-12.2576],[134.3385,-11.787]]]}},{"type":"Feature","properties":{"objects":306,"places":2,"largest_place":"Milingimbi, Central Arnhem Land, Northern Territory","largest_place_objects":301},"geometry":{"type":"Polygon","coordinates":[[[135.0851,-10.3894],[135.8694,-10.8288],[135.8967,-11.7482],[135.1287,-12.2285],[134.3385,-11.787],[134.3221,-10.8674],[135.0851,-10.3894]]]}},{"type":"Feature","properties":{"objects":1,"places":1,"largest_place":"Esperance Bay, Western Australia","largest_place_objects":1},"geometry":{"type":"Polygon","coordinates":[[[121.7022,-32.9679],[122.5951,-33.4727],[122.5146,-34.3647],[121.5253,-34.7507],[120.6267,-34.2383],[120.723,-33.3476],[121.7022,-32.9679]]]}},{"type":"Feature","properties":{"objects":61,"places":2,"largest_place":"Blackstone (Papulankutja Aboriginal community), Western Australia","largest_place_objects":36},"geometry":{"type":"Polygon","coordinates":[[[127.6433,-25.2394],[128.5003,-25.7072],[128.4725,-26.5954],[127.5736,-27.0154],[126.7104,-26.5423],[126.7522,-25.6546],[127.6433,-25.2394]]]}},{"type":"Feature","properties":{"objects":42,"places":5,"largest_place":"Warakurna Community, Western Australia","largest_place_objects":36},"geometry":{"type":"Polygon","coordinates":[[[128.5548,-23.9296],[129.4057,-24.3925],[129.3853,-25.2814],[128.5003,-25.7072],[127.6433,-25.2394],[127.6773,-24.3508],[128.5548,-23.9296]]]}},{"type":"Feature","properties":{"objects":2,"places":1,"largest_place":"Walungurru (Kintore), Western Desert, Northern Territory","largest_place_objects":2},"geometry":{"type":"Polygon","coordinates":[[[129.4457,-22.6124],[130.2904,-23.0707],[130.2771,-23.9608],[129.4057,-24.3925],[128.5548,-23.9296],[128.5814,-23.0397],[129.4457,-22.6124]]]}},{"type":"Feature","properties":{"objects":1,"places":1,"largest_place":"Chilla Well, Northern Territory","largest_place_objects":1},"geometry":{"type":"Polygon","coordinates":[[[131.1677,-19.9538],[132.0,-20.4038],[132.0,-21.2975],[131.155,-21.7412],[130.3164,-21.2873],[130.3291,-20.3936],[131.1677,-19.9538]]]}},{"type":"Feature","properties":{"objects":4,"places":2,"largest_place":"Nutwood Downs, Northern Territory","largest_place_objects":3},"geometry":{"type":"Polygon","coordinates":[[[134.3889,-14.5261],[135.1965,-14.9628],[135.2197,-15.8685],[134.4238,-16.3378],[133.6101,-15.8981],[133.5985,-14.9923],[134.3889,-14.5261]]]}},{"type":"Feature","properties":{"objects":23,"places":3,"largest_place":"Numbulwar, East Arnhem Land, Northern Territory","largest_place_objects":17},"geometry":{"type":"Polygon","coordinates":[[[135.151,-13.1429],[135.9523,-13.577],[135.9807,-14.4868],[135.1965,-14.9628],[134.3889,-14.5261],[134.3719,-13.6161],[135.151,-13.1429]]]}},{"type":"Feature","properties":{"objects":41,"places":10,"largest_place":"Galiwin'ku (Elcho Island), Northern Territory","largest_place_objects":13},"geometry":{"type":"Polygon","coordinates":[[[135.8967,-11.7482],[136.6919,-12.1799],[136.7252,-13.0942],[135.9523,-13.577],[135.151,-13.1429],[135.1287,-12.2285],[135.8967,-11.7482]]]}},{"type":"Feature","properties":{"objects":3,"places":1,"largest_place":"Melville Bay, Gulf of Carpentaria, Northern Territory","largest_place_objects":3},"geometry":{"type":"Polygon","coordinates":[[[136.6265,-10.3412],[137.4156,-10.7708],[137.4537,-11.69],[136.6919,-12.1799],[135.8967,-11.7482],[135.8694,-10.8288],[136.6265,-10.3412]]]}},{"type":"Feature","properties":{"objects":20,"places":5,"largest_place":"Irrunytju (Wingellina), Western Australia","largest_place_objects":10},"geometry":{"type":"Polygon","coordinates":[[[129.3853,-25.2814],[130.2498,-25.7389],[130.2359,-26.6272],[129.3435,-27.058],[128.4725,-26.5954],[128.5003,-25.7072],[129.3853,-25.2814]]]}},{"type":"Feature","properties":{"objects":31,"places":4,"largest_place":"Mutitjulu, Northern Territory","largest_place_objects":17},"geometry":{"type":"Polygon","coordinates":[[[130.2771,-23.9608],[131.1351,-24.4133],[131.1283,-25.3024],[130.2498,-25.7389],[129.3853,-25.2814],[129.4057,-24.3925],[130.2771,-23.9608]]]}},{"type":"Feature","properties":{"objects":85,"places":4,"largest_place":"Papunya, Central Australia, Northern Territory","largest_place_objects":77},"geometry":{"type":"Polygon","coordinates":[[[131.1485,-22.633],[132.0,-23.081],[132.0,-23.9712],[131.1351,-24.4133],[130.2771,-23.9608],[130.2904,-23.0707],[131.1485,-22.633]]]}},{"type":"Feature","properties":{"objects":43,"places":3,"largest_place":"Yuendumu, Northern Territory","largest_place_objects":36},"geometry":{"type":"Polygon","coordinates":[[[132.0,-21.2975],[132.845,-21.7412],[132.8515,-22.633],[132.0,-23.081],[131.1485,-22.633],[131.155,-21.7412],[132.0,-21.2975]]]}},{"type":"Feature","properties":{"objects":2,"places":1,"largest_place":"Tennant Creek, Northern Territory","largest_place_objects":2},"geometry":{"type":"Polygon","coordinates":[[[133.646,-18.6014],[134.4781,-19.0376],[134.4967,-19.9336],[133.6709,-20.3936],[132.8323,-19.9538],[132.8261,-19.0577],[133.646,-18.6014]]]}},{"type":"Feature","properties":{"objects":10,"places":1,"largest_place":"Borroloola, Northern Territory","largest_place_objects":10},"geometry":{"type":"Polygon","coordinates":[[[135.9807,-14.4868],[136.7934,-14.9136],[136.8283,-15.8192],[136.0388,-16.2982],[135.2197,-15.8685],[135.1965,-14.9628],[135.9807,-14.4868]]]}},{"type":"Feature","properties":{"objects":164,"places":3,"largest_place":"Groote Eylandt, Northern Territory","largest_place_objects":127},"geometry":{"type":"Polygon","coordinates":[[[136.7252,-13.0942],[137.5315,-13.5184],[137.5713,-14.428],[136.7934,-14.9136],[135.9807,-14.4868],[135.9523,-13.577],[136.7252,-13.0942]]]}},{"type":"Feature","properties":{"objects":1056,"places":6,"largest_place":"Yirrkala, East Arnhem Land, Northern Territory","largest_place_objects":766},"geometry":{"type":"Polygon","coordinates":[[[137.4537,-11.69],[138.2536,-12.1119],[138.2981,-13.026],[137.5315,-13.5184],[136.7252,-13.0942],[136.6919,-12.1799],[137.4537,-11.69]]]}},{"type":"Feature","properties":{"objects":37,"places":3,"largest_place":"Amata, South Australia","largest_place_objects":31},"geometry":{"type":"Polygon","coordinates":[[[131.1283,-25.3024],[132.0,-25.7494],[132.0,-26.6378],[131.1144,-27.0793],[130.2359,-26.6272],[130.2498,-25.7389],[131.1283,-25.3024]]]}},{"type":"Feature","properties":{"objects":2,"places":2,"largest_place":"Angus Downs Station, Northern Territory","largest_place_objects":1},"geometry":{"type":"Polygon","coordinates":[[[132.0,-23.9712],[132.8649,-24.4133],[132.8717,-25.3024],[132.0,-25.7494],[131.1283,-25.3024],[131.1351,-24.4133],[132.0,-23.9712]]]}},{"type":"Feature","properties":{"objects":68,"places":5,"largest_place":"Hermannsburg, Northern Territory","largest_place_objects":46},"geometry":{"type":"Polygon","coordinates":[[[132.8515,-22.633],[133.7096,-23.0707],[133.7229,-23.9608],[132.8649,-24.4133],[132.0,-23.9712],[132.0,-23.081],[132.8515,-22.633]]]}},{"type":"Feature","properties":{"objects":3,"places":3,"largest_place":"Anningie, Northern Territory","largest_place_objects":1},"geometry":{"type":"Polygon","coordinates":[[[133.6836,-21.2873],[134.5348,-21.7208],[134.5543,-22.6124],[133.7096,-23.0707],[132.8515,-22.633],[132.845,-21.7412],[133.6836,-21.2873]]]}},{"type":"Feature","properties":{"objects":3,"places":1,"largest_place":"Singleton, Northern Territory","largest_place_objects":3},"geometry":{"type":"Polygon","coordinates":[[[134.4967,-19.9336],[135.3412,-20.3632],[135.3666,-21.2567],[134.5348,-21.7208],[133.6836,-21.2873],[133.6709,-20.3936],[134.4967,-19.9336]]]}},{"type":"Feature","properties":{"objects":1,"places":1,"largest_place":"Nealarra (Rocky Point), Northern Territory","largest_place_objects":1},"geometry":{"type":"Polygon","coordinates":[[[137.5713,-14.428],[138.3889,-14.8449],[138.4353,-15.7501],[137.6526,-16.2388],[136.8283,-15.8192],[136.7934,-14.9136],[137.5713,-14.428]]]}},{"type":"Feature","properties":{"objects":4,"places":1,"largest_place":"Gulf of Carpentaria, Queensland","largest_place_objects":4},"geometry":{"type":"Polygon","coordinates":[[[138.2981,-13.026],[139.1091,-13.4403],[139.1601,-14.3496],[138.3889,-14.8449],[137.5713,-14.428],[137.5315,-13.5184],[138.2981,-13.026]]]}},{"type":"Feature","properties":{"objects":9,"places":2,"largest_place":"Nullarbor Plain, Western Australia","largest_place_objects":5},"geometry":{"type":"Polygon","coordinates":[[[129.2556,-30.612],[130.1627,-31.0707],[130.1473,-31.9613],[129.2095,-32.393],[128.2954,-31.9277],[128.3261,-31.0374],[129.2556,-30.612]]]}},{"type":"Feature","properties":{"objects":1,"places":1,"largest_place":"Cook, South Australia","largest_place_objects":1},"geometry":{"type":"Polygon","coordinates":[[[130.1927,-29.2921],[131.0926,-29.7447],[131.0851,-30.634],[130.1627,-31.0707],[129.2556,-30.612],[129.2781,-29.7228],[130.1927,-29.2921]]]}},{"type":"Feature","properties":{"objects":19,"places":2,"largest_place":"Fregon, South Australia","largest_place_objects":18},"geometry":{"type":"Polygon","coordinates":[[[132.0,-26.6378],[132.8856,-27.0793],[132.8928,-27.9676],[132.0,-28.4144],[131.1072,-27.9676],[131.1144,-27.0793],[132.0,-26.6378]]]}},{"type":"Feature","properties":{"objects":648,"places":3,"largest_place":"Ernabella, South Australia","largest_place_objects":642},"geometry":{"type":"Polygon","coordinates":[[[132.8717,-25.3024],[133.7502,-25.7389],[133.7641,-26.6272],[132.8856,-27.0793],[132.0,-26.6378],[132.0,-25.7494],[132.8717,-25.3024]]]}},{"type":"Feature","properties":{"objects":21,"places":4,"largest_place":"Titjikala, Northern Territory","largest_place_objects":16},"geometry":{"type":"Polygon","coordinates":[[[133.7229,-23.9608],[134.5943,-24.3925],[134.6147,-25.2814],[133.7502,-25.7389],[132.8717,-25.3024],[132.8649,-24.4133],[133.7229,-23.9608]]]}},{"type":"Feature","properties":{"objects":334,"places":9,"largest_place":"Yirara College, Alice Springs, Northern Territory","largest_place_objects":200},"geometry":{"type":"Polygon","coordinates":[[[134.5543,-22.6124],[135.4186,-23.0397],[135.4452,-23.9296],[134.5943,-24.3925],[133.7229,-23.9608],[133.7096,-23.0707],[134.5543,-22.6124]]]}},{"type":"Feature","properties":{"objects":5,"places":1,"largest_place":"Utopia, South Australia","largest_place_objects":5},"geometry":{"type":"Polygon","coordinates":[[[135.3666,-21.2567],[136.2238,-21.6799],[136.2562,-22.5713],[135.4186,-23.0397],[134.5543,-22.6124],[134.5348,-21.7208],[135.3666,-21.2567]]]}},{"type":"Feature","properties":{"objects":1,"places":1,"largest_place":"Nicholson River, Northern Territory","largest_place_objects":1},"geometry":{"type":"Polygon","coordinates":[[[137.6941,-17.1405],[138.5302,-17.5531],[138.5787,-18.4512],[137.779,-18.9372],[136.9359,-18.5213],[136.8995,-17.6228],[137.6941,-17.1405]]]}},{"type":"Feature","properties":{"objects":115,"places":1,"largest_place":"Mornington Island State School, Queensland","largest_place_objects":115},"geometry":{"type":"Polygon","coordinates":[[[138.4353,-15.7501],[139.2645,-16.1597],[139.3178,-17.061],[138.5302,-17.5531],[137.6941,-17.1405],[137.6526,-16.2388],[138.4353,-15.7501]]]}},{"type":"Feature","properties":{"objects":70,"places":7,"largest_place":"Saibai Island, Torres Strait, Queensland","largest_place_objects":36},"geometry":{"type":"Polygon","coordinates":[[[141.9048,-8.633],[142.7001,-9.0316],[142.7743,-9.9553],[142.0428,-10.481],[141.2409,-10.0807],[141.1772,-9.1566],[141.9048,-8.633]]]}},{"type":"Feature","properties":{"objects":31,"places":2,"largest_place":"Yalata, South Australia","largest_place_objects":30},"geometry":{"type":"Polygon","coordinates":[[[131.0851,-30.634],[132.0,-31.0818],[132.0,-31.9725],[131.0697,-32.4154],[130.1473,-31.9613],[130.1627,-31.0707],[131.0851,-30.634]]]}},{"type":"Feature","properties":{"objects":2,"places":1,"largest_place":"Ooldea, South Australia","largest_place_objects":2},"geometry":{"type":"Polygon","coordinates":[[[132.0,-29.303],[132.9074,-29.7447],[132.9149,-30.634],[132.0,-31.0818],[131.0851,-30.634],[131.0926,-29.7447],[132.0,-29.303]]]}},{"type":"Feature","properties":{"objects":1,"places":1,"largest_place":"Northern South Australia, South Australia","largest_place_objects":1},"geometry":{"type":"Polygon","coordinates":[[[133.7641,-26.6272],[134.6565,-27.058],[134.678,-27.9461],[133.7927,-28.4036],[132.8928,-27.9676],[132.8856,-27.0793],[133.7641,-26.6272]]]}},{"type":"Feature","properties":{"objects":40,"places":3,"largest_place":"Charlotte Waters, Northern Territory","largest_place_objects":34},"geometry":{"type":"Polygon","coordinates":[[[134.6147,-25.2814],[135.4997,-25.7072],[135.5275,-26.5954],[134.6565,-27.058],[133.7641,-26.6272],[133.7502,-25.7389],[134.6147,-25.2814]]]}},{"type":"Feature","properties":{"objects":6,"places":2,"largest_place":"Lucy Creek, Northern Territory","largest_place_objects":4},"geometry":{"type":"Polygon","coordinates":[[[137.0484,-21.2058],[137.9112,-21.6186],[137.9566,-22.5096],[137.1264,-22.9881],[136.2562,-22.5713],[136.2238,-21.6799],[137.0484,-21.2058]]]}},{"type":"Feature","properties":{"objects":1,"places":1,"largest_place":"Lake Nash, Northern Territory","largest_place_objects":1},"geometry":{"type":"Polygon","coordinates":[[[137.8224,-19.8326],[138.6778,-20.2418],[138.7285,-21.1345],[137.9112,-21.6186],[137.0484,-21.2058],[137.0104,-20.3126],[137.8224,-19.8326]]]}},{"type":"Feature","properties":{"objects":1,"places":1,"largest_place":"Burketown, Queensland","largest_place_objects":1},"geometry":{"type":"Polygon","coordinates":[[[139.3178,-17.061],[140.1587,-17.4635],[140.2192,-18.3612],[139.4268,-18.8569],[138.5787,-18.4512],[138.5302,-17.5531],[139.3178,-17.061]]]}},{"type":"Feature","properties":{"objects":157,"places":3,"largest_place":"Mornington Island, Queensland","largest_place_objects":152},"geometry":{"type":"Polygon","coordinates":[[[140.0403,-15.6613],[140.8741,-16.0609],[140.9392,-16.9617],[140.1587,-17.4635],[139.3178,-17.061],[139.2645,-16.1597],[140.0403,-15.6613]]]}},{"type":"Feature","properties":{"objects":6,"places":1,"largest_place":"Mitchell River, Queensland","largest_place_objects":6},"geometry":{"type":"Polygon","coordinates":[[[140.7468,-14.2516],[141.5734,-14.6485],[141.6428,-15.5529],[140.8741,-16.0609],[140.0403,-15.6613],[139.9824,-14.7565],[140.7468,-14.2516]]]}},{"type":"Feature","properties":{"objects":312,"places":6,"largest_place":"Aurukun, Cape York Peninsula, Queensland","largest_place_objects":252},"geometry":{"type":"Polygon","coordinates":[[[141.4376,-12.8311],[142.2572,-13.2257],[142.3307,-14.1341],[141.5734,-14.6485],[140.7468,-14.2516],[140.6845,-13.3427],[141.4376,-12.8311]]]}},{"type":"Feature","properties":{"objects":72,"places":4,"largest_place":"Mapoon, Queensland","largest_place_objects":41},"geometry":{"type":"Polygon","coordinates":[[[142.1133,-11.3993],[142.9259,-11.7917],[143.0033,-12.7046],[142.2572,-13.2257],[141.4376,-12.8311],[141.3711,-11.9178],[142.1133,-11.3993]]]}},{"type":"Feature","properties":{"objects":162,"places":11,"largest_place":"Torres Strait Islands, Queensland","largest_place_objects":61},"geometry":{"type":"Polygon","coordinates":[[[142.7743,-9.9553],[143.58,-10.3458],[143.6611,-11.2637],[142.9259,-11.7917],[142.1133,-11.3993],[142.0428,-10.481],[142.7743,-9.9553]]]}},{"type":"Feature","properties":{"objects":63,"places":3,"largest_place":"Murray (Mer) Island, Torres Strait, Queensland","largest_place_objects":33},"geometry":{"type":"Polygon","coordinates":[[[143.4211,-8.4986],[144.2199,-8.8874],[144.3046,-9.8108],[143.58,-10.3458],[142.7743,-9.9553],[142.7001,-9.0316],[143.4211,-8.4986]]]}},{"type":"Feature","properties":{"objects":12,"places":4,"largest_place":"Oodnadatta, South Australia","largest_place_objects":6},"geometry":{"type":"Polygon","coordinates":[[[135.5275,-26.5954],[136.4264,-27.0154],[136.4621,-27.9031],[135.5847,-28.3712],[134.678,-27.9461],[134.6565,-27.058],[135.5275,-26.5954]]]}},{"type":"Feature","properties":{"objects":1,"places":1,"largest_place":"Mount Isa, Queensland","largest_place_objects":1},"geometry":{"type":"Polygon","coordinates":[[[139.4826,-19.7519],[140.343,-20.1507],[140.4063,-21.0429],[139.5966,-21.537],[138.7285,-21.1345],[138.6778,-20.2418],[139.4826,-19.7519]]]}},{"type":"Feature","properties":{"objects":1,"places":1,"largest_place":"North-western Queensland, Queensland","largest_place_objects":1},"geometry":{"type":"Polygon","coordinates":[[[140.2192,-18.3612],[141.0722,-18.7566],[141.1402,-19.6511],[140.343,-20.1507],[139.4826,-19.7519],[139.4268,-18.8569],[140.2192,-18.3612]]]}},{"type":"Feature","properties":{"objects":2,"places":1,"largest_place":"Gulf country, Queensland","largest_place_objects":2},"geometry":{"type":"Polygon","coordinates":[[[140.9392,-16.9617],[141.7846,-17.3541],[141.8571,-18.2512],[141.0722,-18.7566],[140.2192,-18.3612],[140.1587,-17.4635],[140.9392,-16.9617]]]}},{"type":"Feature","properties":{"objects":9,"places":1,"largest_place":"Delta Downs Station, Normanton, Queensland","largest_place_objects":9},"geometry":{"type":"Polygon","coordinates":[[[141.6428,-15.5529],[142.4809,-15.9424],[142.5576,-16.8427],[141.7846,-17.3541],[140.9392,-16.9617],[140.8741,-16.0609],[141.6428,-15.5529]]]}},{"type":"Feature","properties":{"objects":6,"places":3,"largest_place":"Pormpuraaw, Cape York, Queensland","largest_place_objects":4},"geometry":{"type":"Polygon","coordinates":[[[142.3307,-14.1341],[143.1615,-14.521],[143.2422,-15.4248],[142.4809,-15.9424],[141.6428,-15.5529],[141.5734,-14.6485],[142.3307,-14.1341]]]}},{"type":"Feature","properties":{"objects":110,"places":3,"largest_place":"Lockhart River, Queensland","largest_place_objects":90},"geometry":{"type":"Polygon","coordinates":[[[143.0033,-12.7046],[143.8268,-13.0892],[143.9114,-13.9971],[143.1615,-14.521],[142.3307,-14.1341],[142.2572,-13.2257],[143.0033,-12.7046]]]}},{"type":"Feature","properties":{"objects":21,"places":4,"largest_place":"Ceduna Area School, Ceduna, South Australia","largest_place_objects":10},"geometry":{"type":"Polygon","coordinates":[[[133.8527,-31.9613],[134.7905,-32.393],[134.8141,-33.2853],[133.8843,-33.7463],[132.9382,-33.308],[132.9303,-32.4154],[133.8527,-31.9613]]]}},{"type":"Feature","properties":{"objects":18,"places":1,"largest_place":"Lake Eyre, South Australia","largest_place_objects":18},"geometry":{"type":"Polygon","coordinates":[[[136.4621,-27.9031],[137.3752,-28.3173],[137.4191,-29.205],[136.5352,-29.6791],[135.6139,-29.2594],[135.5847,-28.3712],[136.4621,-27.9031]]]}},{"type":"Feature","properties":{"objects":7,"places":1,"largest_place":"Cloncurry, Queensland","largest_place_objects":7},"geometry":{"type":"Polygon","coordinates":[[[141.1402,-19.6511],[142.0054,-20.0395],[142.0812,-20.9311],[141.2793,-21.4349],[140.4063,-21.0429],[140.343,-20.1507],[141.1402,-19.6511]]]}},{"type":"Feature","properties":{"objects":15,"places":2,"largest_place":"North Queensland, Queensland","largest_place_objects":8},"geometry":{"type":"Polygon","coordinates":[[[142.5576,-16.8427],[143.4074,-17.2248],[143.4918,-18.1213],[142.7145,-18.6363],[141.8571,-18.2512],[141.7846,-17.3541],[142.5576,-16.8427]]]}},{"type":"Feature","properties":{"objects":4,"places":1,"largest_place":"Palmer River, Queensland","largest_place_objects":4},"geometry":{"type":"Polygon","coordinates":[[[143.2422,-15.4248],[144.0844,-15.8042],[144.1727,-16.7038],[143.4074,-17.2248],[142.5576,-16.8427],[142.4809,-15.9424],[143.2422,-15.4248]]]}},{"type":"Feature","properties":{"objects":1,"places":1,"largest_place":"Musgrave, Queensland","largest_place_objects":1},"geometry":{"type":"Polygon","coordinates":[[[143.9114,-13.9971],[144.746,-14.3739],[144.8382,-15.2772],[144.0844,-15.8042],[143.2422,-15.4248],[143.1615,-14.521],[143.9114,-13.9971]]]}},{"type":"Feature","properties":{"objects":4,"places":1,"largest_place":"Eyre Peninsula, South Australia","largest_place_objects":4},"geometry":{"type":"Polygon","coordinates":[[[135.7046,-31.9277],[136.6495,-32.348],[136.6889,-33.2399],[135.7677,-33.7121],[134.8141,-33.2853],[134.7905,-32.393],[135.7046,-31.9277]]]}},{"type":"Feature","properties":{"objects":2,"places":2,"largest_place":"Nurrungar, South Australia","largest_place_objects":1},"geometry":{"type":"Polygon","coordinates":[[[136.5727,-30.5679],[137.5089,-30.9821],[137.555,-31.8718],[136.6495,-32.348],[135.7046,-31.9277],[135.6739,-31.0374],[136.5727,-30.5679]]]}},{"type":"Feature","properties":{"objects":3,"places":3,"largest_place":"Lyndhurst, South Australia","largest_place_objects":1},"geometry":{"type":"Polygon","coordinates":[[[137.4191,-29.205],[138.3468,-29.6136],[138.3991,-30.5017],[137.5089,-30.9821],[136.5727,-30.5679],[136.5352,-29.6791],[137.4191,-29.205]]]}},{"type":"Feature","properties":{"objects":24,"places":4,"largest_place":"Cooper Creek, South Australia","largest_place_objects":9},"geometry":{"type":"Polygon","coordinates":[[[138.2445,-27.8386],[139.1637,-28.2418],[139.2221,-29.1289],[138.3468,-29.6136],[137.4191,-29.205],[137.3752,-28.3173],[138.2445,-27.8386]]]}},{"type":"Feature","properties":{"objects":12,"places":3,"largest_place":"Diamantina River, Queensland","largest_place_objects":5},"geometry":{"type":"Polygon","coordinates":[[[139.0497,-26.468],[139.9604,-26.8662],[140.0245,-27.7528],[139.1637,-28.2418],[138.2445,-27.8386],[138.1946,-26.9514],[139.0497,-26.468]]]}},{"type":"Feature","properties":{"objects":5,"places":3,"largest_place":"Bloomfield River, Queensland","largest_place_objects":3},"geometry":{"type":"Polygon","coordinates":[[[144.8382,-15.2772],[145.684,-15.6464],[145.7839,-16.5453],[145.0264,-17.0757],[144.1727,-16.7038],[144.0844,-15.8042],[144.8382,-15.2772]]]}},{"type":"Feature","properties":{"objects":8,"places":3,"largest_place":"Hopevale Arts and Cultural Centre, Queensland","largest_place_objects":5},"geometry":{"type":"Polygon","coordinates":[[[145.4886,-13.8406],[146.3267,-14.2074],[146.4301,-15.1099],[145.684,-15.6464],[144.8382,-15.2772],[144.746,-14.3739],[145.4886,-13.8406]]]}},{"type":"Feature","properties":{"objects":19,"places":3,"largest_place":"Port Lincoln, Eyre Peninsula, South Australia","largest_place_objects":9},"geometry":{"type":"Polygon","coordinates":[[[135.8,-34.6066],[136.7697,-35.0285],[136.8112,-35.9259],[135.8664,-36.402],[134.8876,-35.9728],[134.8627,-35.0749],[135.8,-34.6066]]]}},{"type":"Feature","properties":{"objects":1,"places":1,"largest_place":"Parramatta, Sydney, New South Wales","largest_place_objects":1},"geometry":{"type":"Polygon","coordinates":[[[136.6889,-33.2399],[137.6495,-33.655],[137.6979,-34.549],[136.7697,-35.0285],[135.8,-34.6066],[135.7677,-33.7121],[136.6889,-33.2399]]]}},{"type":"Feature","properties":{"objects":24,"places":9,"largest_place":"Quorn, Flinders Ranges, South Australia","largest_place_objects":11},"geometry":{"type":"Polygon","coordinates":[[[137.555,-31.8718],[138.5066,-32.2806],[138.5616,-33.1718],[137.6495,-33.655],[136.6889,-33.2399],[136.6495,-32.348],[137.555,-31.8718]]]}},{"type":"Feature","properties":{"objects":37,"places":8,"largest_place":"Flinders Ranges, South Australia","largest_place_objects":14},"geometry":{"type":"Polygon","coordinates":[[[138.3991,-30.5017],[139.3417,-30.9046],[139.4031,-31.7936],[138.5066,-32.2806],[137.555,-31.8718],[137.5089,-30.9821],[138.3991,-30.5017]]]}},{"type":"Feature","properties":{"objects":9,"places":3,"largest_place":"Gammon Ranges, South Australia","largest_place_objects":7},"geometry":{"type":"Polygon","coordinates":[[[139.2221,-29.1289],[140.1557,-29.5262],[140.223,-30.4136],[139.3417,-30.9046],[138.3991,-30.5017],[138.3468,-29.6136],[139.2221,-29.1289]]]}},{"type":"Feature","properties":{"objects":2,"places":2,"largest_place":"Cordillo Downs Station, South Australia","largest_place_objects":1},"geometry":{"type":"Polygon","coordinates":[[[140.8071,-26.3726],[141.7232,-26.7599],[141.8014,-27.6455],[140.9493,-28.1449],[140.0245,-27.7528],[139.9604,-26.8662],[140.8071,-26.3726]]]}},{"type":"Feature","properties":{"objects":44,"places":1,"largest_place":"Utopia, Northern Territory","largest_place_objects":44},"geometry":{"type":"Polygon","coordinates":[[[143.7526,-20.799],[144.6346,-21.17],[144.7311,-22.0581],[143.9331,-22.5762],[143.0427,-22.2016],[142.9588,-21.3126],[143.7526,-20.799]]]}},{"type":"Feature","properties":{"objects":68,"places":12,"largest_place":"Cardwell, Queensland","largest_place_objects":19},"geometry":{"type":"Polygon","coordinates":[[[145.7839,-16.5453],[146.6413,-16.907],[146.7492,-17.8019],[145.9881,-18.336],[145.1226,-17.9715],[145.0264,-17.0757],[145.7839,-16.5453]]]}},{"type":"Feature","properties":{"objects":10,"places":5,"largest_place":"Adelaide, Adelaide, South Australia","largest_place_objects":6},"geometry":{"type":"Polygon","coordinates":[[[137.6979,-34.549],[138.6746,-34.959],[138.7326,-35.8556],[137.7974,-36.343],[136.8112,-35.9259],[136.7697,-35.0285],[137.6979,-34.549]]]}},{"type":"Feature","properties":{"objects":339,"places":19,"largest_place":"Adelaide, South Australia","largest_place_objects":270},"geometry":{"type":"Polygon","coordinates":[[[138.5616,-33.1718],[139.5288,-33.5752],[139.5933,-34.4683],[138.6746,-34.959],[137.6979,-34.549],[137.6495,-33.655],[138.5616,-33.1718]]]}},{"type":"Feature","properties":{"objects":26,"places":3,"largest_place":"Orroroo, South Australia","largest_place_objects":18},"geometry":{"type":"Polygon","coordinates":[[[139.4031,-31.7936],[140.3609,-32.1908],[140.4315,-33.0811],[139.5288,-33.5752],[138.5616,-33.1718],[138.5066,-32.2806],[139.4031,-31.7936]]]}},{"type":"Feature","properties":{"objects":5,"places":2,"largest_place":"South West Queensland, Queensland","largest_place_objects":4},"geometry":{"type":"Polygon","coordinates":[[[141.8014,-27.6455],[142.7315,-28.0265],[142.8187,-28.9118],[141.9615,-29.4172],[141.0222,-29.0312],[140.9493,-28.1449],[141.8014,-27.6455]]]}},{"type":"Feature","properties":{"objects":2,"places":2,"largest_place":"Longreach, Queensland","largest_place_objects":1},"geometry":{"type":"Polygon","coordinates":[[[144.7311,-22.0581],[145.6257,-22.4221],[145.731,-23.3079],[144.9288,-23.8308],[144.0255,-23.463],[143.9331,-22.5762],[144.7311,-22.0581]]]}},{"type":"Feature","properties":{"objects":47,"places":4,"largest_place":"St Michael's Catholic Primary School, Palm Island, Queensland","largest_place_objects":32},"geometry":{"type":"Polygon","coordinates":[[[146.7492,-17.8019],[147.6183,-18.1561],[147.7346,-19.0473],[146.9699,-19.5854],[146.0925,-19.2282],[145.9881,-18.336],[146.7492,-17.8019]]]}},{"type":"Feature","properties":{"objects":11,"places":5,"largest_place":"Lake Alexandrina, South Australia","largest_place_objects":4},"geometry":{"type":"Polygon","coordinates":[[[139.5933,-34.4683],[140.5765,-34.8664],[140.6509,-35.7619],[139.7257,-36.2605],[138.7326,-35.8556],[138.6746,-34.959],[139.5933,-34.4683]]]}},{"type":"Feature","properties":{"objects":27,"places":7,"largest_place":"Barmera, South Australia","largest_place_objects":7},"geometry":{"type":"Polygon","coordinates":[[[140.4315,-33.0811],[141.4049,-33.4727],[141.4854,-34.3647],[140.5765,-34.8664],[139.5933,-34.4683],[139.5288,-33.5752],[140.4315,-33.0811]]]}},{"type":"Feature","properties":{"objects":5,"places":1,"largest_place":"Broken Hill, New South Wales","largest_place_objects":5},"geometry":{"type":"Polygon","coordinates":[[[141.248,-31.6931],[142.2116,-32.0787],[142.2978,-32.9679],[141.4049,-33.4727],[140.4315,-33.0811],[140.3609,-32.1908],[141.248,-31.6931]]]}},{"type":"Feature","properties":{"objects":5,"places":1,"largest_place":"North-western New South Wales, New South Wales","largest_place_objects":5},"geometry":{"type":"Polygon","coordinates":[[[142.8187,-28.9118],[143.7632,-29.2865],[143.8599,-30.1717],[142.9975,-30.6835],[142.0435,-30.3036],[141.9615,-29.4172],[142.8187,-28.9118]]]}},{"type":"Feature","properties":{"objects":1,"places":1,"largest_place":"Coopers Creek, Queensland","largest_place_objects":1},"geometry":{"type":"Polygon","coordinates":[[[147.0828,-20.4743],[147.9724,-20.8242],[148.094,-21.7102],[147.3136,-22.2476],[146.4151,-21.8943],[146.3059,-21.0072],[147.0828,-20.4743]]]}},{"type":"Feature","properties":{"objects":1,"places":1,"largest_place":"Millicent, South Australia","largest_place_objects":1},"geometry":{"type":"Polygon","coordinates":[[[139.7936,-37.1602],[140.8036,-37.5602],[140.882,-38.4636],[139.9331,-38.9683],[138.9126,-38.5606],[138.8516,-37.6561],[139.7936,-37.1602]]]}},{"type":"Feature","properties":{"objects":1,"places":1,"largest_place":"Nhill, Victoria","largest_place_objects":1},"geometry":{"type":"Polygon","coordinates":[[[140.6509,-35.7619],[141.6505,-36.1546],[141.7353,-37.0531],[140.8036,-37.5602],[139.7936,-37.1602],[139.7257,-36.2605],[140.6509,-35.7619]]]}},{"type":"Feature","properties":{"objects":2,"places":2,"largest_place":"Cowangie, Melbourne, Victoria","largest_place_objects":1},"geometry":{"type":"Polygon","coordinates":[[[141.4854,-34.3647],[142.4747,-34.7507],[142.5654,-35.645],[141.6505,-36.1546],[140.6509,-35.7619],[140.5765,-34.8664],[141.4854,-34.3647]]]}},{"type":"Feature","properties":{"objects":2,"places":2,"largest_place":"Mildura, Victoria","largest_place_objects":1},"geometry":{"type":"Polygon","coordinates":[[[142.2978,-32.9679],[143.277,-33.3476],[143.3733,-34.2383],[142.4747,-34.7507],[141.4854,-34.3647],[141.4049,-33.4727],[142.2978,-32.9679]]]}},{"type":"Feature","properties":{"objects":9,"places":2,"largest_place":"Western New South Wales","largest_place_objects":7},"geometry":{"type":"Polygon","coordinates":[[[143.0891,-31.5704],[144.0581,-31.9443],[144.1598,-32.8322],[143.277,-33.3476],[142.2978,-32.9679],[142.2116,-32.0787],[143.0891,-31.5704]]]}},{"type":"Feature","properties":{"objects":5,"places":4,"largest_place":"Wilcannia, New South Wales","largest_place_objects":2},"geometry":{"type":"Polygon","coordinates":[[[143.8599,-30.1717],[144.819,-30.5401],[144.9256,-31.4257],[144.0581,-31.9443],[143.0891,-31.5704],[142.9975,-30.6835],[143.8599,-30.1717]]]}},{"type":"Feature","properties":{"objects":1,"places":1,"largest_place":"Paroo River, Queensland","largest_place_objects":1},"geometry":{"type":"Polygon","coordinates":[[[144.611,-28.7709],[145.5603,-29.1342],[145.6715,-30.0181],[144.819,-30.5401],[143.8599,-30.1717],[143.7632,-29.2865],[144.611,-28.7709]]]}},{"type":"Feature","properties":{"objects":1,"places":1,"largest_place":"Charleville, Queensland","largest_place_objects":1},"geometry":{"type":"Polygon","coordinates":[[[146.0568,-25.96],[146.9868,-26.3141],[147.1066,-27.1963],[146.2826,-27.7258],[145.3431,-27.3672],[145.237,-26.4837],[146.0568,-25.96]]]}},{"type":"Feature","properties":{"objects":40,"places":1,"largest_place":"Cairns, Queensland","largest_place_objects":40},"geometry":{"type":"Polygon","coordinates":[[[148.094,-21.7102],[148.9961,-22.0528],[149.1268,-22.9362],[148.3429,-23.4784],[147.4317,-23.1322],[147.3136,-22.2476],[148.094,-21.7102]]]}},{"type":"Feature","properties":{"objects":12,"places":2,"largest_place":"Mackay, Queensland","largest_place_objects":11},"geometry":{"type":"Polygon","coordinates":[[[148.7405,-20.2819],[149.6334,-20.6212],[149.7674,-21.506],[148.9961,-22.0528],[148.094,-21.7102],[147.9724,-20.8242],[148.7405,-20.2819]]]}},{"type":"Feature","properties":{"objects":9,"places":7,"largest_place":"Hamilton, Victoria","largest_place_objects":2},"geometry":{"type":"Polygon","coordinates":[[[141.7353,-37.0531],[142.7516,-37.4405],[142.8472,-38.3424],[141.9093,-38.8585],[140.882,-38.4636],[140.8036,-37.5602],[141.7353,-37.0531]]]}},{"type":"Feature","properties":{"objects":20,"places":5,"largest_place":"Horsham, Victoria","largest_place_objects":16},"geometry":{"type":"Polygon","coordinates":[[[142.5654,-35.645],[143.571,-36.0254],[143.6724,-36.9223],[142.7516,-37.4405],[141.7353,-37.0531],[141.6505,-36.1546],[142.5654,-35.645]]]}},{"type":"Feature","properties":{"objects":3,"places":2,"largest_place":"Swan Hill, Victoria","largest_place_objects":2},"geometry":{"type":"Polygon","coordinates":[[[143.3733,-34.2383],[144.3682,-34.6122],[144.4751,-35.5049],[143.571,-36.0254],[142.5654,-35.645],[142.4747,-34.7507],[143.3733,-34.2383]]]}},{"type":"Feature","properties":{"objects":2,"places":1,"largest_place":"Yallock, New South Wales","largest_place_objects":2},"geometry":{"type":"Polygon","coordinates":[[[144.9256,-31.4257],[145.8996,-31.7878],[146.0165,-32.6741],[145.1442,-33.2],[144.1598,-32.8322],[144.0581,-31.9443],[144.9256,-31.4257]]]}},{"type":"Feature","properties":{"objects":15,"places":3,"largest_place":"Byrock, New South Wales","largest_place_objects":8},"geometry":{"type":"Polygon","coordinates":[[[145.6715,-30.0181],[146.6353,-30.3749],[146.7567,-31.2589],[145.8996,-31.7878],[144.9256,-31.4257],[144.819,-30.5401],[145.6715,-30.0181]]]}},{"type":"Feature","properties":{"objects":23,"places":4,"largest_place":"Darling River, New South Wales","largest_place_objects":9},"geometry":{"type":"Polygon","coordinates":[[[146.3983,-28.6085],[147.352,-28.9604],[147.4776,-29.8428],[146.6353,-30.3749],[145.6715,-30.0181],[145.5603,-29.1342],[146.3983,-28.6085]]]}},{"type":"Feature","properties":{"objects":1,"places":1,"largest_place":"Cape Otway, Victoria","largest_place_objects":1},"geometry":{"type":"Polygon","coordinates":[[[142.8472,-38.3424],[143.8807,-38.7245],[143.9876,-39.6304],[143.0435,-40.1561],[141.9986,-39.7662],[141.9093,-38.8585],[142.8472,-38.3424]]]}},{"type":"Feature","properties":{"objects":51,"places":11,"largest_place":"Ballarat, Victoria","largest_place_objects":30},"geometry":{"type":"Polygon","coordinates":[[[143.6724,-36.9223],[144.6946,-37.2971],[144.8072,-38.1973],[143.8807,-38.7245],[142.8472,-38.3424],[142.7516,-37.4405],[143.6724,-36.9223]]]}},{"type":"Feature","properties":{"objects":29,"places":8,"largest_place":"Tongala, Victoria","largest_place_objects":10},"geometry":{"type":"Polygon","coordinates":[[[144.4751,-35.5049],[145.4862,-35.8729],[145.6042,-36.7681],[144.6946,-37.2971],[143.6724,-36.9223],[143.571,-36.0254],[144.4751,-35.5049]]]}},{"type":"Feature","properties":{"objects":5,"places":4,"largest_place":"Warangesda Mission Station, Darlington Point, New South Wales","largest_place_objects":2},"geometry":{"type":"Polygon","coordinates":[[[145.2562,-34.0891],[146.2563,-34.4508],[146.3793,-35.3418],[145.4862,-35.8729],[144.4751,-35.5049],[144.3682,-34.6122],[145.2562,-34.0891]]]}},{"type":"Feature","properties":{"objects":9,"places":3,"largest_place":"Griffith, New South Wales","largest_place_objects":7},"geometry":{"type":"Polygon","coordinates":[[[146.0165,-32.6741],[147.0057,-33.0299],[147.1334,-33.9173],[146.2563,-34.4508],[145.2562,-34.0891],[145.1442,-33.2],[146.0165,-32.6741]]]}},{"type":"Feature","properties":{"objects":9,"places":1,"largest_place":"Gongolgon, New South Wales","largest_place_objects":9},"geometry":{"type":"Polygon","coordinates":[[[147.4776,-29.8428],[148.4457,-30.188],[148.5818,-31.0703],[147.7353,-31.6093],[146.7567,-31.2589],[146.6353,-30.3749],[147.4776,-29.8428]]]}},{"type":"Feature","properties":{"objects":4,"places":4,"largest_place":"Dirranbandi, Queensland","largest_place_objects":1},"geometry":{"type":"Polygon","coordinates":[[[148.1799,-28.4248],[149.1376,-28.7653],[149.2776,-29.6459],[148.4457,-30.188],[147.4776,-29.8428],[147.352,-28.9604],[148.1799,-28.4248]]]}},{"type":"Feature","properties":{"objects":6,"places":3,"largest_place":"Yaamba, Rockhampton, Queensland","largest_place_objects":4},"geometry":{"type":"Polygon","coordinates":[[[150.816,-22.7199],[151.7337,-23.0443],[151.8866,-23.9239],[151.1092,-24.4806],[150.1817,-24.1526],[150.0415,-23.2715],[150.816,-22.7199]]]}},{"type":"Feature","properties":{"objects":1502,"places":45,"largest_place":"Melbourne, Victoria","largest_place_objects":984},"geometry":{"type":"Polygon","coordinates":[[[145.6042,-36.7681],[146.6317,-37.1302],[146.7612,-38.0283],[145.8464,-38.5665],[144.8072,-38.1973],[144.6946,-37.2971],[145.6042,-36.7681]]]}},{"type":"Feature","properties":{"objects":30,"places":11,"largest_place":"Wangaratta, Victoria","largest_place_objects":8},"geometry":{"type":"Polygon","coordinates":[[[146.3793,-35.3418],[147.3953,-35.6974],[147.5297,-36.5905],[146.6317,-37.1302],[145.6042,-36.7681],[145.4862,-35.8729],[146.3793,-35.3418]]]}},{"type":"Feature","properties":{"objects":55,"places":8,"largest_place":"Narrandera, New South Wales","largest_place_objects":17},"geometry":{"type":"Polygon","coordinates":[[[147.1334,-33.9173],[148.1382,-34.2668],[148.277,-35.1558],[147.3953,-35.6974],[146.3793,-35.3418],[146.2563,-34.4508],[147.1334,-33.9173]]]}},{"type":"Feature","properties":{"objects":48,"places":7,"largest_place":"Bogan River, New South Wales","largest_place_objects":22},"geometry":{"type":"Polygon","coordinates":[[[147.8673,-32.4938],[148.8609,-32.8376],[149.004,-33.7231],[148.1382,-34.2668],[147.1334,-33.9173],[147.0057,-33.0299],[147.8673,-32.4938]]]}},{"type":"Feature","properties":{"objects":14,"places":7,"largest_place":"Castlereagh River, New South Wales","largest_place_objects":4},"geometry":{"type":"Polygon","coordinates":[[[148.5818,-31.0703],[149.5645,-31.4088],[149.7115,-32.2914],[148.8609,-32.8376],[147.8673,-32.4938],[147.7353,-31.6093],[148.5818,-31.0703]]]}},{"type":"Feature","properties":{"objects":3,"places":2,"largest_place":"Maryborough, New South Wales","largest_place_objects":2},"geometry":{"type":"Polygon","coordinates":[[[149.2776,-29.6459],[150.2494,-29.9795],[150.4001,-30.8599],[149.5645,-31.4088],[148.5818,-31.0703],[148.4457,-30.188],[149.2776,-29.6459]]]}},{"type":"Feature","properties":{"objects":3,"places":1,"largest_place":"Goondiwindi, Queensland","largest_place_objects":3},"geometry":{"type":"Polygon","coordinates":[[[149.9553,-28.2199],[150.9165,-28.5489],[151.0706,-29.4277],[150.2494,-29.9795],[149.2776,-29.6459],[149.1376,-28.7653],[149.9553,-28.2199]]]}},{"type":"Feature","properties":{"objects":19,"places":2,"largest_place":"Cherbourg Mission, Cherbourg, Queensland","largest_place_objects":18},"geometry":{"type":"Polygon","coordinates":[[[151.2592,-25.3596],[152.1997,-25.6803],[152.36,-26.5576],[151.5664,-27.1161],[150.6156,-26.7914],[150.4687,-25.9123],[151.2592,-25.3596]]]}},{"type":"Feature","properties":{"objects":1,"places":1,"largest_place":"Bundaberg, Queensland","largest_place_objects":1},"geometry":{"type":"Polygon","coordinates":[[[151.8866,-23.9239],[152.817,-24.2409],[152.98,-25.1182],[152.1997,-25.6803],[151.2592,-25.3596],[151.1092,-24.4806],[151.8866,-23.9239]]]}},{"type":"Feature","properties":{"objects":2,"places":2,"largest_place":"Mount King William, Tasmania","largest_place_objects":1},"geometry":{"type":"Polygon","coordinates":[[[145.1574,-40.9178],[146.2263,-41.2893],[146.3576,-42.2051],[145.4017,-42.752],[144.3203,-42.3719],[144.2074,-41.4537],[145.1574,-40.9178]]]}},{"type":"Feature","properties":{"objects":4,"places":4,"largest_place":"Mirboo North, Victoria","largest_place_objects":1},"geometry":{"type":"Polygon","coordinates":[[[146.7612,-38.0283],[147.8056,-38.3846],[147.9472,-39.2861],[147.0273,-39.8339],[145.9708,-39.4704],[145.8464,-38.5665],[146.7612,-38.0283]]]}},{"type":"Feature","properties":{"objects":66,"places":7,"largest_place":"Lake Tyers, East Gippsland, Victoria","largest_place_objects":43},"geometry":{"type":"Polygon","coordinates":[[[147.5297,-36.5905],[148.5621,-36.9399],[148.7083,-37.8357],[147.8056,-38.3846],[146.7612,-38.0283],[146.6317,-37.1302],[147.5297,-36.5905]]]}},{"type":"Feature","properties":{"objects":198,"places":13,"largest_place":"Cooma, New South Wales","largest_place_objects":163},"geometry":{"type":"Polygon","coordinates":[[[148.277,-35.1558],[149.2976,-35.4989],[149.4482,-36.3898],[148.5621,-36.9399],[147.5297,-36.5905],[147.3953,-35.6974],[148.277,-35.1558]]]}},{"type":"Feature","properties":{"objects":1133,"places":26,"largest_place":"Canberran Capital Territory","largest_place_objects":641},"geometry":{"type":"Polygon","coordinates":[[[149.004,-33.7231],[150.013,-34.0603],[150.1676,-34.947],[149.2976,-35.4989],[148.277,-35.1558],[148.1382,-34.2668],[149.004,-33.7231]]]}},{"type":"Feature","properties":{"objects":97,"places":17,"largest_place":"The Rocks, Sydney, New South Wales","largest_place_objects":46},"geometry":{"type":"Polygon","coordinates":[[[149.7115,-32.2914],[150.709,-32.6232],[150.8674,-33.5065],[150.013,-34.0603],[149.004,-33.7231],[148.8609,-32.8376],[149.7115,-32.2914]]]}},{"type":"Feature","properties":{"objects":39,"places":1,"largest_place":"Walhallow Primary School, Caroona, New South Wales","largest_place_objects":39},"geometry":{"type":"Polygon","coordinates":[[[150.4001,-30.8599],[151.3864,-31.1866],[151.5483,-32.0671],[150.709,-32.6232],[149.7115,-32.2914],[149.5645,-31.4088],[150.4001,-30.8599]]]}},{"type":"Feature","properties":{"objects":5,"places":4,"largest_place":"Gwydir River, New South Wales","largest_place_objects":2},"geometry":{"type":"Polygon","coordinates":[[[151.0706,-29.4277],[152.0459,-29.7496],[152.211,-30.6279],[151.3864,-31.1866],[150.4001,-30.8599],[150.2494,-29.9795],[151.0706,-29.4277]]]}},{"type":"Feature","properties":{"objects":74,"places":4,"largest_place":"Woodenbong Central School, Woodenbong, New South Wales","largest_place_objects":38},"geometry":{"type":"Polygon","coordinates":[[[151.7237,-27.9939],[152.6881,-28.3114],[152.8562,-29.1882],[152.0459,-29.7496],[151.0706,-29.4277],[150.9165,-28.5489],[151.7237,-27.9939]]]}},{"type":"Feature","properties":{"objects":66,"places":10,"largest_place":"Brisbane, Queensland","largest_place_objects":53},"geometry":{"type":"Polygon","coordinates":[[[152.36,-26.5576],[153.3137,-26.871],[153.4845,-27.7468],[152.6881,-28.3114],[151.7237,-27.9939],[151.5664,-27.1161],[152.36,-26.5576]]]}},{"type":"Feature","properties":{"objects":41,"places":6,"largest_place":"Gympie, Queensland","largest_place_objects":19},"geometry":{"type":"Polygon","coordinates":[[[152.98,-25.1182],[153.9233,-25.4278],[154.0967,-26.3032],[153.3137,-26.871],[152.36,-26.5576],[152.1997,-25.6803],[152.98,-25.1182]]]}},{"type":"Feature","properties":{"objects":178,"places":8,"largest_place":"Hobart, Hobart, Tasmania","largest_place_objects":111},"geometry":{"type":"Polygon","coordinates":[[[146.3576,-42.2051],[147.4448,-42.5712],[147.5891,-43.493],[146.6276,-44.0515],[145.5273,-43.6765],[145.4017,-42.752],[146.3576,-42.2051]]]}},{"type":"Feature","properties":{"objects":43,"places":7,"largest_place":"Launceston, Tasmania","largest_place_objects":29},"geometry":{"type":"Polygon","coordinates":[[[147.164,-40.7421],[148.2382,-41.1],[148.3877,-42.0131],[147.4448,-42.5712],[146.3576,-42.2051],[146.2263,-41.2893],[147.164,-40.7421]]]}},{"type":"Feature","properties":{"objects":25,"places":2,"largest_place":"Cape Barren Island Special School, Cape Barren Island, Tasmania","largest_place_objects":23},"geometry":{"type":"Polygon","coordinates":[[[147.9472,-39.2861],[149.0087,-39.6364],[149.163,-40.5419],[148.2382,-41.1],[147.164,-40.7421],[147.0273,-39.8339],[147.9472,-39.2861]]]}},{"type":"Feature","properties":{"objects":65,"places":9,"largest_place":"Eden, New South Wales","largest_place_objects":28},"geometry":{"type":"Polygon","coordinates":[[[149.4482,-36.3898],[150.4849,-36.7264],[150.6477,-37.6197],[149.7573,-38.179],[148.7083,-37.8357],[148.5621,-36.9399],[149.4482,-36.3898]]]}},{"type":"Feature","properties":{"objects":45,"places":12,"largest_place":"Sydney, New South Wales","largest_place_objects":15},"geometry":{"type":"Polygon","coordinates":[[[150.1676,-34.947],[151.1922,-35.2776],[151.3588,-36.166],[150.4849,-36.7264],[149.4482,-36.3898],[149.2976,-35.4989],[150.1676,-34.947]]]}},{"type":"Feature","properties":{"objects":2048,"places":81,"largest_place":"Sydney, New South Wales","largest_place_objects":1602},"geometry":{"type":"Polygon","coordinates":[[[150.8674,-33.5065],[151.8801,-33.8314],[152.0502,-34.7157],[151.1922,-35.2776],[150.1676,-34.947],[150.013,-34.0603],[150.8674,-33.5065]]]}},{"type":"Feature","properties":{"objects":41,"places":6,"largest_place":"Maitland, New South Wales","largest_place_objects":21},"geometry":{"type":"Polygon","coordinates":[[[151.5483,-32.0671],[152.5493,-32.3868],[152.7227,-33.2677],[151.8801,-33.8314],[150.8674,-33.5065],[150.709,-32.6232],[151.5483,-32.0671]]]}},{"type":"Feature","properties":{"objects":10,"places":4,"largest_place":"Macleay River, New South Wales","largest_place_objects":4},"geometry":{"type":"Polygon","coordinates":[[[152.211,-30.6279],[153.2005,-30.9427],[153.3769,-31.8209],[152.5493,-32.3868],[151.5483,-32.0671],[151.3864,-31.1866],[152.211,-30.6279]]]}},{"type":"Feature","properties":{"objects":16,"places":4,"largest_place":"Woolgoolga, New South Wales","largest_place_objects":8},"geometry":{"type":"Polygon","coordinates":[[[152.8562,-29.1882],[153.8344,-29.4984],[154.0136,-30.3745],[153.2005,-30.9427],[152.211,-30.6279],[152.0459,-29.7496],[152.8562,-29.1882]]]}},{"type":"Feature","properties":{"objects":76,"places":15,"largest_place":"Tweed Heads, New South Wales","largest_place_objects":25},"geometry":{"type":"Polygon","coordinates":[[[153.4845,-27.7468],[154.4517,-28.0528],[154.6335,-28.9275],[153.8344,-29.4984],[152.8562,-29.1882],[152.6881,-28.3114],[153.4845,-27.7468]]]}},{"type":"Feature","properties":{"objects":2,"places":1,"largest_place":"Point Puer, Carnarvon Bay, Tasmania","largest_place_objects":2},"geometry":{"type":"Polygon","coordinates":[[[148.3877,-42.0131],[149.48,-42.3653],[149.6429,-43.2839],[148.695,-43.8537],[147.5891,-43.493],[147.4448,-42.5712],[148.3877,-42.0131]]]}}]}